[{"OBJECT_NAME":"STARLINK-30439","OBJECT_ID":"2023-144D","EPOCH":"2026-03-08T16:19:46.591104","MEAN_MOTION":15.27575417,"ECCENTRICITY":0.00011363,"INCLINATION":43.0006,"RA_OF_ASC_NODE":290.8518,"ARG_OF_PERICENTER":244.5416,"MEAN_ANOMALY":115.5319,"EPHEMERIS_TYPE":0,"CLASSIFICATION_TYPE":"U","NORAD_CAT_ID":57867,"ELEMENT_SET_NO":999,"REV_AT_EPOCH":13749,"BSTAR":0.00071117837,"MEAN_MOTION_DOT":0.00019357,"MEAN_MOTION_DDOT":0},{"OBJECT_NAME":"CZ-6A DEB","OBJECT_ID":"2022-151NB","EPOCH":"2026-03-09T18:26:17.609568","MEAN_MOTION":15.22372787,"ECCENTRICITY":0.00267955,"INCLINATION":98.6489,"RA_OF_ASC_NODE":154.0342,"ARG_OF_PERICENTER":180.4296,"MEAN_ANOMALY":179.6918,"EPHEMERIS_TYPE":0,"CLASSIFICATION_TYPE":"U","NORAD_CAT_ID":54601,"ELEMENT_SET_NO":999,"REV_AT_EPOCH":17694,"BSTAR":0.011449911,"MEAN_MOTION_DOT":0.00276508,"MEAN_MOTION_DDOT":0}]
